OBJECT_NAME,OBJECT_ID,EPOCH,MEAN_MOTION,ECCENTRICITY,INCLINATION,RA_OF_ASC_NODE,ARG_OF_PERICENTER,MEAN_ANOMALY,EPHEMERIS_TYPE,CLASSIFICATION_TYPE,NORAD_CAT_ID,ELEMENT_SET_NO,REV_AT_EPOCH,BSTAR,MEAN_MOTION_DOT,MEAN_MOTION_DDOT
FENGYUN 3D,2017-072A,2026-07-15T21:37:27.689952,14.19745145,.00014782,99.0140,171.8448,12.3918,347.7294,0,U,43010,999,44906,.45032285E-4,.49E-6,0
NOAA 20 (JPSS-1),2017-073A,2026-07-15T21:37:00.426432,14.19516508,.00014115,98.7772,136.1089,124.0074,236.1236,0,U,43013,999,44854,.21742794E-4,.2E-7,0
GOES 17,2018-022A,2026-07-15T21:29:53.219040,1.00270988,.00005528,1.0087,85.2446,78.1874,3.2787,0,U,43226,999,3071,0,-.193E-5,0
SENTINEL-3B,2018-039A,2026-07-15T19:15:52.126560,14.26736422,.00011538,98.6236,263.9224,119.6296,240.5000,0,U,43437,999,42820,.35746444E-4,.43E-6,0
FENGYUN 2H,2018-050A,2026-07-15T22:18:02.974176,1.00267071,.00022979,3.1028,78.7270,134.0013,134.6727,0,U,43491,999,2972,0,-.139E-5,0
METOP-C,2018-087A,2026-07-15T13:47:48.761088,14.21519167,.0002216,98.6630,255.6574,93.2289,266.9142,0,U,43689,999,39886,.44045E-4,.53E-6,0
GEO-KOMPSAT-2A,2018-100A,2026-07-14T17:27:00.252000,1.00269956,.00019612,0.0287,108.8702,352.7689,220.9550,0,U,43823,999,2790,0,-.352E-5,0
METEOR-M2 2,2019-038A,2026-07-15T23:24:23.823936,14.24372139,.0000691,98.9154,184.6877,1.8560,358.2620,0,U,44387,999,36539,-.89223118E-4,-.252E-5,0
ARKTIKA-M 1,2021-016A,2026-07-14T09:46:38.558208,2.00611590,.7297332,63.2662,53.6722,270.0591,14.4994,0,U,47719,999,3933,0,-.301E-5,0
FENGYUN 3E,2021-062A,2026-07-15T22:51:08.335584,14.19905549,.00022269,98.7495,200.0400,37.8101,322.3231,0,U,49008,999,26066,-.13119363E-3,-.322E-5,0
GOES 18,2022-021A,2026-07-15T17:51:02.673216,1.00271110,.0000422,0.0207,116.7756,62.7056,244.8565,0,U,51850,999,687,0,.86E-6,0
NOAA 21 (JPSS-2),2022-150A,2026-07-15T22:23:29.953248,14.19541138,.00028385,98.7059,135.2394,103.1874,256.9619,0,U,54234,999,19062,.30771068E-4,.21E-6,0
METEOSAT-12 (MTG-I1),2022-170C,2026-07-15T21:16:38.625888,1.00267890,.00038354,0.7258,19.8591,81.8567,150.8405,0,U,54743,999,1326,0,-.19E-6,0
TIANMU-1 03,2023-039A,2026-07-15T22:49:12.972576,15.48056220,.00025154,97.5238,12.0646,24.8021,335.3350,0,U,55973,999,18528,.1650564E-3,.8546E-4,0
TIANMU-1 04,2023-039B,2026-07-15T22:17:42.527616,15.48682652,.00029459,97.5178,11.1978,10.0126,350.1183,0,U,55974,999,18529,.17199187E-3,.9107E-4,0
TIANMU-1 05,2023-039C,2026-07-15T22:23:33.087840,15.47981068,.00028856,97.5223,11.6501,43.8866,316.2613,0,U,55975,999,18526,.16979705E-3,.8771E-4,0
TIANMU-1 06,2023-039D,2026-07-15T22:25:14.661408,15.48579531,.00029737,97.5230,12.3163,35.0479,325.0967,0,U,55976,999,18529,.17098267E-3,.9021E-4,0
FENGYUN 3G,2023-055A,2026-07-15T23:47:51.304128,15.53811732,.00070281,49.9905,197.4634,59.5601,300.6060,0,U,56232,999,18448,.22422662E-3,.14258E-3,0
METEOR-M2 3,2023-091A,2026-07-15T23:25:47.893728,14.24048971,.00051433,98.6068,251.3631,88.5250,271.6519,0,U,57166,999,15861,.13570524E-4,-.12E-6,0
TIANMU-1 07,2023-101A,2026-07-15T22:37:42.610656,15.30120076,.00037096,97.2576,246.9540,63.2049,296.9572,0,U,57399,999,16604,.11294328E-3,.3218E-4,0
TIANMU-1 08,2023-101B,2026-07-15T23:23:44.104992,15.30124036,.00045568,97.2565,246.7517,44.1132,316.0472,0,U,57400,999,16604,.11337479E-3,.3231E-4,0
TIANMU-1 09,2023-101C,2026-07-15T22:58:52.922208,15.30165409,.00043186,97.2522,246.1361,63.2701,296.8982,0,U,57401,999,16604,.11749863E-3,.3356E-4,0
TIANMU-1 10,2023-101D,2026-07-15T22:13:01.877088,15.30138607,.00055971,97.2602,247.1848,52.2866,307.8881,0,U,57402,999,16603,.11745517E-3,.3352E-4,0
FENGYUN 3F,2023-111A,2026-07-15T22:26:58.892640,14.19943465,.00012618,98.6825,266.4068,76.1287,284.0030,0,U,57490,999,15294,.28113161E-4,.16E-6,0
ARKTIKA-M 2,2023-198A,2026-07-15T04:12:00.091584,2.00608092,.69107365,63.2178,151.2342,267.3397,18.7345,0,U,58584,999,1888,0,.129E-5,0
TIANMU-1 11,2023-205A,2026-07-15T22:47:27.003840,15.27267932,.00068117,97.3440,218.0594,258.7138,101.3336,0,U,58645,999,14191,.10590245E-3,.2757E-4,0
TIANMU-1 12,2023-205B,2026-07-15T23:42:10.982304,15.27099778,.00058535,97.3429,217.8435,231.0586,129.0132,0,U,58646,999,14190,.11006608E-3,.2853E-4,0
TIANMU-1 13,2023-205C,2026-07-15T22:55:59.222784,15.27092409,.00058685,97.3456,218.0921,209.2545,150.8366,0,U,58647,999,14189,.10994706E-3,.2849E-4,0
TIANMU-1 14,2023-205D,2026-07-16T00:07:50.205216,15.27136588,.00065045,97.3393,217.3005,216.7829,143.2965,0,U,58648,999,14190,.10908364E-3,.2831E-4,0
TIANMU-1 19,2023-208A,2026-07-15T21:35:12.473088,15.31982057,.00046652,97.4531,313.3573,195.7279,164.3819,0,U,58660,999,14172,.14569864E-3,.442E-4,0
