FENGYUN 3D              
1 43010U 17072A   26196.90101493  .00000049  00000+0  45032-4 0  9996
2 43010  99.0140 171.8448 0001478  12.3918 347.7294 14.19745145449060
NOAA 20 (JPSS-1)        
1 43013U 17073A   26196.90069938  .00000002  00000+0  21743-4 0  9999
2 43013  98.7772 136.1089 0001411 124.0074 236.1236 14.19516508448544
GOES 17                 
1 43226U 18022A   26196.89575485 -.00000193  00000+0  00000+0 0  9997
2 43226   1.0087  85.2446 0000552  78.1874   3.2787  1.00270988 30714
SENTINEL-3B             
1 43437U 18039A   26196.80268665  .00000043  00000+0  35746-4 0  9992
2 43437  98.6236 263.9224 0001153 119.6296 240.5000 14.26736422428203
FENGYUN 2H              
1 43491U 18050A   26196.92920109 -.00000139  00000+0  00000+0 0  9993
2 43491   3.1028  78.7270 0002297 134.0013 134.6727  1.00267071 29724
METOP-C                 
1 43689U 18087A   26196.57486992  .00000053  00000+0  44045-4 0  9996
2 43689  98.6630 255.6574 0002216  93.2289 266.9142 14.21519167398863
GEO-KOMPSAT-2A          
1 43823U 18100A   26195.72708625 -.00000352  00000+0  00000+0 0  9999
2 43823   0.0287 108.8702 0001961 352.7689 220.9550  1.00269956 27901
METEOR-M2 2             
1 44387U 19038A   26196.97527574 -.00000252  00000+0 -89223-4 0  9995
2 44387  98.9154 184.6877 0000691   1.8560 358.2620 14.24372139365399
ARKTIKA-M 1             
1 47719U 21016A   26195.40739072 -.00000301  00000+0  00000+0 0  9996
2 47719  63.2662  53.6722 7297332 270.0591  14.4994  2.00611590 39330
FENGYUN 3E              
1 49008U 21062A   26196.95217981 -.00000322  00000+0 -13119-3 0  9994
2 49008  98.7495 200.0400 0002226  37.8101 322.3231 14.19905549260666
GOES 18                 
1 51850U 22021A   26196.74378094  .00000086  00000+0  00000+0 0  9994
2 51850   0.0207 116.7756 0000422  62.7056 244.8565  1.00271110  6875
NOAA 21 (JPSS-2)        
1 54234U 22150A   26196.93298557  .00000021  00000+0  30771-4 0  9994
2 54234  98.7059 135.2394 0002838 103.1874 256.9619 14.19541138190623
METEOSAT-12 (MTG-I1)    
1 54743U 22170C   26196.88655817 -.00000019  00000+0  00000+0 0  9996
2 54743   0.7258  19.8591 0003835  81.8567 150.8405  1.00267890 13262
TIANMU-1 03             
1 55973U 23039A   26196.95084459  .00008546  00000+0  16506-3 0  9997
2 55973  97.5238  12.0646 0002515  24.8021 335.3350 15.48056220185283
TIANMU-1 04             
1 55974U 23039B   26196.92896444  .00009107  00000+0  17199-3 0  9993
2 55974  97.5178  11.1978 0002945  10.0126 350.1183 15.48682652185299
TIANMU-1 05             
1 55975U 23039C   26196.93302185  .00008771  00000+0  16980-3 0  9992
2 55975  97.5223  11.6501 0002885  43.8866 316.2613 15.47981068185266
TIANMU-1 06             
1 55976U 23039D   26196.93419747  .00009021  00000+0  17098-3 0  9996
2 55976  97.5230  12.3163 0002973  35.0479 325.0967 15.48579531185290
FENGYUN 3G              
1 56232U 23055A   26196.99156602  .00014258  00000+0  22423-3 0  9990
2 56232  49.9905 197.4634 0007028  59.5601 300.6060 15.53811732184489
METEOR-M2 3             
1 57166U 23091A   26196.97624877 -.00000012  00000+0  13571-4 0  9998
2 57166  98.6068 251.3631 0005143  88.5250 271.6519 14.24048971158618
TIANMU-1 07             
1 57399U 23101A   26196.94285429  .00003218  00000+0  11294-3 0  9990
2 57399  97.2576 246.9540 0003709  63.2049 296.9572 15.30120076166046
TIANMU-1 08             
1 57400U 23101B   26196.97481603  .00003231  00000+0  11337-3 0  9991
2 57400  97.2565 246.7517 0004556  44.1132 316.0472 15.30124036166044
TIANMU-1 09             
1 57401U 23101C   26196.95755697  .00003356  00000+0  11750-3 0  9994
2 57401  97.2522 246.1361 0004318  63.2701 296.8982 15.30165409166049
TIANMU-1 10             
1 57402U 23101D   26196.92571617  .00003352  00000+0  11746-3 0  9991
2 57402  97.2602 247.1848 0005597  52.2866 307.8881 15.30138607166030
FENGYUN 3F              
1 57490U 23111A   26196.93540385  .00000016  00000+0  28113-4 0  9999
2 57490  98.6825 266.4068 0001261  76.1287 284.0030 14.19943465152942
ARKTIKA-M 2             
1 58584U 23198A   26196.17500106  .00000129  00000+0  00000+0 0  9997
2 58584  63.2178 151.2342 6910736 267.3397  18.7345  2.00608092 18886
TIANMU-1 11             
1 58645U 23205A   26196.94961810  .00002757  00000+0  10590-3 0  9990
2 58645  97.3440 218.0594 0006811 258.7138 101.3336 15.27267932141913
TIANMU-1 12             
1 58646U 23205B   26196.98762711  .00002853  00000+0  11007-3 0  9995
2 58646  97.3429 217.8435 0005853 231.0586 129.0132 15.27099778141909
TIANMU-1 13             
1 58647U 23205C   26196.95554656  .00002849  00000+0  10995-3 0  9990
2 58647  97.3456 218.0921 0005868 209.2545 150.8366 15.27092409141894
TIANMU-1 14             
1 58648U 23205D   26197.00544219  .00002831  00000+0  10908-3 0  9997
2 58648  97.3393 217.3005 0006504 216.7829 143.2965 15.27136588141906
TIANMU-1 19             
1 58660U 23208A   26196.89944992  .00004420  00000+0  14570-3 0  9997
2 58660  97.4531 313.3573 0004665 195.7279 164.3819 15.31982057141720
